{
  "type": "FeatureCollection",
  "features": [
    {
      "type": "Feature",
      "properties": {
        "norad_id": 46277,
        "name": "NEMO-HD",
        "group": "resource",
        "lat": 46.47651172658151,
        "lon": -114.07196128962738,
        "alt_km": 440.291963160028,
        "timestamp": "2025-12-25T07:41:09.380785+00:00",
        "meta_object_name": "NEMO-HD",
        "meta_object_id": "2020-061F",
        "meta_epoch": "2025-12-24T21:45:27.246240",
        "meta_mean_motion": 15.4057199,
        "meta_eccentricity": 0.00010762,
        "meta_inclination": 97.2188,
        "meta_ra_of_asc_node": 57.85,
        "meta_arg_of_pericenter": 52.72,
        "meta_mean_anomaly": 307.4145,
        "meta_ephemeris_type": 0,
        "meta_classification_type": "U",
        "meta_norad_cat_id": 46277,
        "meta_element_set_no": 999,
        "meta_rev_at_epoch": 29511,
        "meta_bstar": 0.000284205,
        "meta_mean_motion_dot": 0.00011476,
        "meta_mean_motion_ddot": 0,
        "tle_line1": "1 46277U 20061F   25358.90656535  .00011476  00000+0  28421-3 0  9995",
        "tle_line2": "2 46277  97.2188  57.8500 0001076  52.7200 307.4145 15.40571990295111"
      },
      "geometry": {
        "type": "Point",
        "coordinates": [
          -114.07196128962738,
          46.47651172658151
        ]
      }
    },
    {
      "type": "Feature",
      "properties": {
        "norad_id": 46984,
        "name": "SENTINEL-6A",
        "group": "resource",
        "lat": 30.208624115293155,
        "lon": -58.8251497800456,
        "alt_km": 1338.3798218557522,
        "timestamp": "2025-12-25T07:41:09.380795+00:00",
        "meta_object_name": "SENTINEL-6A",
        "meta_object_id": "2020-086A",
        "meta_epoch": "2025-12-24T15:55:56.858592",
        "meta_mean_motion": 12.80930713,
        "meta_eccentricity": 0.00077606,
        "meta_inclination": 66.0399,
        "meta_ra_of_asc_node": 137.5413,
        "meta_arg_of_pericenter": 269.4223,
        "meta_mean_anomaly": 90.5903,
        "meta_ephemeris_type": 0,
        "meta_classification_type": "U",
        "meta_norad_cat_id": 46984,
        "meta_element_set_no": 999,
        "meta_rev_at_epoch": 23797,
        "meta_bstar": -9.062628e-06,
        "meta_mean_motion_dot": -6.3e-07,
        "meta_mean_motion_ddot": 0,
        "tle_line1": "1 46984U 20086A   25358.66385253 -.00000063  00000+0 -90626-5 0  9996",
        "tle_line2": "2 46984  66.0399 137.5413 0007760 269.4223  90.5903 12.80930713237976"
      },
      "geometry": {
        "type": "Point",
        "coordinates": [
          -58.8251497800456,
          30.208624115293155
        ]
      }
    },
    {
      "type": "Feature",
      "properties": {
        "norad_id": 48079,
        "name": "GAOFEN-12 02",
        "group": "resource",
        "lat": 51.51263165986262,
        "lon": -16.903276445734218,
        "alt_km": 620.1014010256831,
        "timestamp": "2025-12-25T07:41:09.380806+00:00",
        "meta_object_name": "GAOFEN-12 02",
        "meta_object_id": "2021-026A",
        "meta_epoch": "2025-12-24T23:20:30.266592",
        "meta_mean_motion": 14.80689149,
        "meta_eccentricity": 0.00035513,
        "meta_inclination": 97.9857,
        "meta_ra_of_asc_node": 352.9203,
        "meta_arg_of_pericenter": 76.5559,
        "meta_mean_anomaly": 283.6049,
        "meta_ephemeris_type": 0,
        "meta_classification_type": "U",
        "meta_norad_cat_id": 48079,
        "meta_element_set_no": 999,
        "meta_rev_at_epoch": 25598,
        "meta_bstar": 7.4383973e-05,
        "meta_mean_motion_dot": 5.19e-06,
        "meta_mean_motion_ddot": 0,
        "tle_line1": "1 48079U 21026A   25358.97257253  .00000519  00000+0  74384-4 0  9996",
        "tle_line2": "2 48079  97.9857 352.9203 0003551  76.5559 283.6049 14.80689149255981"
      },
      "geometry": {
        "type": "Point",
        "coordinates": [
          -16.903276445734218,
          51.51263165986262
        ]
      }
    },
    {
      "type": "Feature",
      "properties": {
        "norad_id": 48268,
        "name": "PLEIADES NEO 3",
        "group": "resource",
        "lat": 15.754791263909851,
        "lon": -106.17587694020678,
        "alt_km": 624.5853380685539,
        "timestamp": "2025-12-25T07:41:09.380816+00:00",
        "meta_object_name": "PLEIADES NEO 3",
        "meta_object_id": "2021-034A",
        "meta_epoch": "2025-12-24T21:13:25.224672",
        "meta_mean_motion": 14.81670607,
        "meta_eccentricity": 0.00013154,
        "meta_inclination": 97.8943,
        "meta_ra_of_asc_node": 71.1511,
        "meta_arg_of_pericenter": 90.0173,
        "meta_mean_anomaly": 270.119,
        "meta_ephemeris_type": 0,
        "meta_classification_type": "U",
        "meta_norad_cat_id": 48268,
        "meta_element_set_no": 999,
        "meta_rev_at_epoch": 25184,
        "meta_bstar": -4.6152324e-05,
        "meta_mean_motion_dot": -4.15e-06,
        "meta_mean_motion_ddot": 0,
        "tle_line1": "1 48268U 21034A   25358.88431973 -.00000415  00000+0 -46152-4 0  9997",
        "tle_line2": "2 48268  97.8943  71.1511 0001315  90.0173 270.1190 14.81670607251846"
      },
      "geometry": {
        "type": "Point",
        "coordinates": [
          -106.17587694020678,
          15.754791263909851
        ]
      }
    },
    {
      "type": "Feature",
      "properties": {
        "norad_id": 49070,
        "name": "PLEIADES NEO 4",
        "group": "resource",
        "lat": -15.940484656603543,
        "lon": 73.84865545894837,
        "alt_km": 629.127710108236,
        "timestamp": "2025-12-25T07:41:09.380829+00:00",
        "meta_object_name": "PLEIADES NEO 4",
        "meta_object_id": "2021-073E",
        "meta_epoch": "2025-12-24T10:41:17.866752",
        "meta_mean_motion": 14.81673086,
        "meta_eccentricity": 0.00013584,
        "meta_inclination": 97.8947,
        "meta_ra_of_asc_node": 70.715,
        "meta_arg_of_pericenter": 91.473,
        "meta_mean_anomaly": 268.6638,
        "meta_ephemeris_type": 0,
        "meta_classification_type": "U",
        "meta_norad_cat_id": 49070,
        "meta_element_set_no": 999,
        "meta_rev_at_epoch": 23549,
        "meta_bstar": 4.9213728e-05,
        "meta_mean_motion_dot": 3.35e-06,
        "meta_mean_motion_ddot": 0,
        "tle_line1": "1 49070U 21073E   25358.44534568  .00000335  00000+0  49214-4 0  9999",
        "tle_line2": "2 49070  97.8947  70.7150 0001358  91.4730 268.6638 14.81673086235493"
      },
      "geometry": {
        "type": "Point",
        "coordinates": [
          73.84865545894837,
          -15.940484656603543
        ]
      }
    },
    {
      "type": "Feature",
      "properties": {
        "norad_id": 49260,
        "name": "LANDSAT 9",
        "group": "resource",
        "lat": -29.874154600951158,
        "lon": 72.00373450133358,
        "alt_km": 708.8735874210533,
        "timestamp": "2025-12-25T07:41:09.380839+00:00",
        "meta_object_name": "LANDSAT 9",
        "meta_object_id": "2021-088A",
        "meta_epoch": "2025-12-24T18:38:23.131104",
        "meta_mean_motion": 14.57109853,
        "meta_eccentricity": 0.00011162,
        "meta_inclination": 98.2078,
        "meta_ra_of_asc_node": 66.7123,
        "meta_arg_of_pericenter": 93.3243,
        "meta_mean_anomaly": 266.8083,
        "meta_ephemeris_type": 0,
        "meta_classification_type": "U",
        "meta_norad_cat_id": 49260,
        "meta_element_set_no": 999,
        "meta_rev_at_epoch": 22560,
        "meta_bstar": 0.00010507597,
        "meta_mean_motion_dot": 4.28e-06,
        "meta_mean_motion_ddot": 0,
        "tle_line1": "1 49260U 21088A   25358.77665661  .00000428  00000+0  10508-3 0  9997",
        "tle_line2": "2 49260  98.2078  66.7123 0001116  93.3243 266.8083 14.57109853225606"
      },
      "geometry": {
        "type": "Point",
        "coordinates": [
          72.00373450133358,
          -29.874154600951158
        ]
      }
    },
    {
      "type": "Feature",
      "properties": {
        "norad_id": 51444,
        "name": "CSG-2",
        "group": "resource",
        "lat": 37.86416827349722,
        "lon": 174.27177775241552,
        "alt_km": 619.0173555717929,
        "timestamp": "2025-12-25T07:41:09.380850+00:00",
        "meta_object_name": "CSG-2",
        "meta_object_id": "2022-008A",
        "meta_epoch": "2025-12-24T23:24:45.029952",
        "meta_mean_motion": 14.82154748,
        "meta_eccentricity": 0.00014619,
        "meta_inclination": 97.8803,
        "meta_ra_of_asc_node": 180.1142,
        "meta_arg_of_pericenter": 81.2598,
        "meta_mean_anomaly": 278.8781,
        "meta_ephemeris_type": 0,
        "meta_classification_type": "U",
        "meta_norad_cat_id": 51444,
        "meta_element_set_no": 999,
        "meta_rev_at_epoch": 21078,
        "meta_bstar": 2.5784814e-05,
        "meta_mean_motion_dot": 1.53e-06,
        "meta_mean_motion_ddot": 0,
        "tle_line1": "1 51444U 22008A   25358.97552118  .00000153  00000+0  25785-4 0  9990",
        "tle_line2": "2 51444  97.8803 180.1142 0001461  81.2598 278.8781 14.82154748210780"
      },
      "geometry": {
        "type": "Point",
        "coordinates": [
          174.27177775241552,
          37.86416827349722
        ]
      }
    }
  ]
}